STARLINK-1036
1 24741C 19074AE  21325.12151088  .00004755  00000-0  31868-3 0  3253
2 24741  53.0547  52.6860 0001143  76.4862 154.1290 15.06386193    10
